[{"OBJECT_NAME":"STARLINK-6296","OBJECT_ID":"2023-078G","EPOCH":"2026-03-09T23:11:47.813568","MEAN_MOTION":14.98325501,"ECCENTRICITY":0.00027866,"INCLINATION":69.999,"RA_OF_ASC_NODE":303.9273,"ARG_OF_PERICENTER":270.4408,"MEAN_ANOMALY":89.6431,"EPHEMERIS_TYPE":0,"CLASSIFICATION_TYPE":"U","NORAD_CAT_ID":56773,"ELEMENT_SET_NO":999,"REV_AT_EPOCH":15370,"BSTAR":2.3787996e-5,"MEAN_MOTION_DOT":1.91e-6,"MEAN_MOTION_DDOT":0},{"OBJECT_NAME":"MINOTAUR 1 R\/B","OBJECT_ID":"2021-052D","EPOCH":"2026-03-09T21:18:39.973824","MEAN_MOTION":14.98028633,"ECCENTRICITY":0.00079769,"INCLINATION":54.9882,"RA_OF_ASC_NODE":195.5395,"ARG_OF_PERICENTER":41.2727,"MEAN_ANOMALY":318.8885,"EPHEMERIS_TYPE":0,"CLASSIFICATION_TYPE":"U","NORAD_CAT_ID":48849,"ELEMENT_SET_NO":999,"REV_AT_EPOCH":16111,"BSTAR":0.00022925551,"MEAN_MOTION_DOT":2.48e-5,"MEAN_MOTION_DDOT":0}]
